[Satellite]
VERSION=1.1
NAME=YAHSAT 1B
NICKNAME=YAHSAT 1B
TLE1=1 38245U 12016A   17186.08099529  .00000122  00000-0  00000-0 0  9992
TLE2=2 38245   0.0204  17.0820 0002044  61.6582 281.2827  1.00268604 19148
